[{"OBJECT_NAME":"ONEWEB-0346","OBJECT_ID":"2021-083AC","EPOCH":"2026-03-03T08:58:18.633792","MEAN_MOTION":13.18688029,"ECCENTRICITY":0.0001734,"INCLINATION":87.9241,"RA_OF_ASC_NODE":356.4773,"ARG_OF_PERICENTER":56.8005,"MEAN_ANOMALY":303.3294,"EPHEMERIS_TYPE":0,"CLASSIFICATION_TYPE":"U","NORAD_CAT_ID":49212,"ELEMENT_SET_NO":999,"REV_AT_EPOCH":21603,"BSTAR":0.0001051021,"MEAN_MOTION_DOT":5.4e-7,"MEAN_MOTION_DDOT":0},{"OBJECT_NAME":"ONEWEB-0348","OBJECT_ID":"2021-083AD","EPOCH":"2026-03-03T15:51:22.068576","MEAN_MOTION":13.20771941,"ECCENTRICITY":0.00018344,"INCLINATION":87.9182,"RA_OF_ASC_NODE":295.5088,"ARG_OF_PERICENTER":65.6945,"MEAN_ANOMALY":294.438,"EPHEMERIS_TYPE":0,"CLASSIFICATION_TYPE":"U","NORAD_CAT_ID":49213,"ELEMENT_SET_NO":999,"REV_AT_EPOCH":22288,"BSTAR":0.00017448484,"MEAN_MOTION_DOT":8.4e-7,"MEAN_MOTION_DDOT":0},{"OBJECT_NAME":"ONEWEB-0350","OBJECT_ID":"2021-083AE","EPOCH":"2026-03-03T07:26:25.804896","MEAN_MOTION":13.13468984,"ECCENTRICITY":0.00020461,"INCLINATION":87.9043,"RA_OF_ASC_NODE":341.2764,"ARG_OF_PERICENTER":73.6523,"MEAN_ANOMALY":286.4831,"EPHEMERIS_TYPE":0,"CLASSIFICATION_TYPE":"U","NORAD_CAT_ID":49214,"ELEMENT_SET_NO":999,"REV_AT_EPOCH":21703,"BSTAR":0.00048131723,"MEAN_MOTION_DOT":1.89e-6,"MEAN_MOTION_DDOT":0},{"OBJECT_NAME":"ONEWEB-0351","OBJECT_ID":"2021-083AF","EPOCH":"2026-03-03T15:42:05.285376","MEAN_MOTION":13.20772769,"ECCENTRICITY":0.0002238,"INCLINATION":87.9183,"RA_OF_ASC_NODE":295.5088,"ARG_OF_PERICENTER":103.0199,"MEAN_ANOMALY":257.1185,"EPHEMERIS_TYPE":0,"CLASSIFICATION_TYPE":"U","NORAD_CAT_ID":49215,"ELEMENT_SET_NO":999,"REV_AT_EPOCH":22284,"BSTAR":0.00015956333,"MEAN_MOTION_DOT":7.8e-7,"MEAN_MOTION_DDOT":0},{"OBJECT_NAME":"ONEWEB-0352","OBJECT_ID":"2021-083AG","EPOCH":"2026-03-03T06:58:24.261312","MEAN_MOTION":13.13470519,"ECCENTRICITY":0.00019583,"INCLINATION":87.9037,"RA_OF_ASC_NODE":341.2969,"ARG_OF_PERICENTER":90.0741,"MEAN_ANOMALY":270.0612,"EPHEMERIS_TYPE":0,"CLASSIFICATION_TYPE":"U","NORAD_CAT_ID":49216,"ELEMENT_SET_NO":999,"REV_AT_EPOCH":21712,"BSTAR":0.00088075403,"MEAN_MOTION_DOT":3.34e-6,"MEAN_MOTION_DDOT":0},{"OBJECT_NAME":"ONEWEB-0354","OBJECT_ID":"2021-083AH","EPOCH":"2026-03-03T14:29:32.367840","MEAN_MOTION":13.2077243,"ECCENTRICITY":0.00018032,"INCLINATION":87.9183,"RA_OF_ASC_NODE":295.518,"ARG_OF_PERICENTER":75.4866,"MEAN_ANOMALY":284.6467,"EPHEMERIS_TYPE":0,"CLASSIFICATION_TYPE":"U","NORAD_CAT_ID":49217,"ELEMENT_SET_NO":999,"REV_AT_EPOCH":22287,"BSTAR":0.00018934728,"MEAN_MOTION_DOT":9.0e-7,"MEAN_MOTION_DDOT":0},{"OBJECT_NAME":"ONEWEB-0355","OBJECT_ID":"2021-083AJ","EPOCH":"2026-03-03T07:40:01.078752","MEAN_MOTION":13.13467923,"ECCENTRICITY":0.00019828,"INCLINATION":87.903,"RA_OF_ASC_NODE":341.3022,"ARG_OF_PERICENTER":81.3313,"MEAN_ANOMALY":278.8041,"EPHEMERIS_TYPE":0,"CLASSIFICATION_TYPE":"U","NORAD_CAT_ID":49218,"ELEMENT_SET_NO":999,"REV_AT_EPOCH":21700,"BSTAR":-0.00011424546,"MEAN_MOTION_DOT":-2.9e-7,"MEAN_MOTION_DDOT":0},{"OBJECT_NAME":"ONEWEB-0357","OBJECT_ID":"2021-083AK","EPOCH":"2026-03-03T14:24:59.809536","MEAN_MOTION":13.20772296,"ECCENTRICITY":0.00017021,"INCLINATION":87.9182,"RA_OF_ASC_NODE":295.5133,"ARG_OF_PERICENTER":87.4414,"MEAN_ANOMALY":272.6914,"EPHEMERIS_TYPE":0,"CLASSIFICATION_TYPE":"U","NORAD_CAT_ID":49219,"ELEMENT_SET_NO":999,"REV_AT_EPOCH":22287,"BSTAR":0.00011744881,"MEAN_MOTION_DOT":6.1e-7,"MEAN_MOTION_DDOT":0},{"OBJECT_NAME":"ONEWEB-0332","OBJECT_ID":"2021-090A","EPOCH":"2026-03-03T15:26:17.778912","MEAN_MOTION":13.14501691,"ECCENTRICITY":0.00015431,"INCLINATION":87.8996,"RA_OF_ASC_NODE":310.7663,"ARG_OF_PERICENTER":88.0193,"MEAN_ANOMALY":272.1113,"EPHEMERIS_TYPE":0,"CLASSIFICATION_TYPE":"U","NORAD_CAT_ID":49279,"ELEMENT_SET_NO":999,"REV_AT_EPOCH":21371,"BSTAR":-0.00038784481,"MEAN_MOTION_DOT":-1.31e-6,"MEAN_MOTION_DDOT":0},{"OBJECT_NAME":"ONEWEB-0347","OBJECT_ID":"2021-090B","EPOCH":"2026-03-03T14:11:21.124608","MEAN_MOTION":13.20770708,"ECCENTRICITY":0.00013577,"INCLINATION":87.9184,"RA_OF_ASC_NODE":295.524,"ARG_OF_PERICENTER":88.7334,"MEAN_ANOMALY":271.3955,"EPHEMERIS_TYPE":0,"CLASSIFICATION_TYPE":"U","NORAD_CAT_ID":49280,"ELEMENT_SET_NO":999,"REV_AT_EPOCH":21710,"BSTAR":-0.0005666298,"MEAN_MOTION_DOT":-2.17e-6,"MEAN_MOTION_DDOT":0},{"OBJECT_NAME":"ONEWEB-0349","OBJECT_ID":"2021-090C","EPOCH":"2026-03-03T14:56:49.468128","MEAN_MOTION":13.20772209,"ECCENTRICITY":0.00015848,"INCLINATION":87.9186,"RA_OF_ASC_NODE":295.5174,"ARG_OF_PERICENTER":83.7524,"MEAN_ANOMALY":276.3789,"EPHEMERIS_TYPE":0,"CLASSIFICATION_TYPE":"U","NORAD_CAT_ID":49281,"ELEMENT_SET_NO":999,"REV_AT_EPOCH":21589,"BSTAR":-3.1755759e-5,"MEAN_MOTION_DOT":0,"MEAN_MOTION_DDOT":0},{"OBJECT_NAME":"ONEWEB-0353","OBJECT_ID":"2021-090D","EPOCH":"2026-03-03T15:14:52.672704","MEAN_MOTION":13.1450215,"ECCENTRICITY":0.00014705,"INCLINATION":87.9002,"RA_OF_ASC_NODE":310.7619,"ARG_OF_PERICENTER":87.4819,"MEAN_ANOMALY":272.6479,"EPHEMERIS_TYPE":0,"CLASSIFICATION_TYPE":"U","NORAD_CAT_ID":49282,"ELEMENT_SET_NO":999,"REV_AT_EPOCH":21371,"BSTAR":-0.0005092758,"MEAN_MOTION_DOT":-1.76e-6,"MEAN_MOTION_DDOT":0},{"OBJECT_NAME":"ONEWEB-0356","OBJECT_ID":"2021-090E","EPOCH":"2026-03-03T14:54:31.874400","MEAN_MOTION":13.20772306,"ECCENTRICITY":9.162e-5,"INCLINATION":87.918,"RA_OF_ASC_NODE":295.5113,"ARG_OF_PERICENTER":55.8512,"MEAN_ANOMALY":304.2708,"EPHEMERIS_TYPE":0,"CLASSIFICATION_TYPE":"U","NORAD_CAT_ID":49283,"ELEMENT_SET_NO":999,"REV_AT_EPOCH":21589,"BSTAR":-6.38237e-6,"MEAN_MOTION_DOT":1.0e-7,"MEAN_MOTION_DDOT":0},{"OBJECT_NAME":"ONEWEB-0358","OBJECT_ID":"2021-090F","EPOCH":"2026-03-03T15:37:43.990176","MEAN_MOTION":13.20772362,"ECCENTRICITY":0.0001583,"INCLINATION":87.9182,"RA_OF_ASC_NODE":295.5083,"ARG_OF_PERICENTER":79.245,"MEAN_ANOMALY":280.8862,"EPHEMERIS_TYPE":0,"CLASSIFICATION_TYPE":"U","NORAD_CAT_ID":49284,"ELEMENT_SET_NO":999,"REV_AT_EPOCH":21662,"BSTAR":0.00020398014,"MEAN_MOTION_DOT":9.6e-7,"MEAN_MOTION_DDOT":0},{"OBJECT_NAME":"ONEWEB-0359","OBJECT_ID":"2021-090G","EPOCH":"2026-03-03T15:33:10.953216","MEAN_MOTION":13.20769816,"ECCENTRICITY":0.0001789,"INCLINATION":87.9183,"RA_OF_ASC_NODE":295.5056,"ARG_OF_PERICENTER":76.3469,"MEAN_ANOMALY":283.7864,"EPHEMERIS_TYPE":0,"CLASSIFICATION_TYPE":"U","NORAD_CAT_ID":49285,"ELEMENT_SET_NO":999,"REV_AT_EPOCH":21660,"BSTAR":5.6858531e-5,"MEAN_MOTION_DOT":3.6e-7,"MEAN_MOTION_DDOT":0},{"OBJECT_NAME":"ONEWEB-0360","OBJECT_ID":"2021-090H","EPOCH":"2026-03-03T15:19:31.795680","MEAN_MOTION":13.20773536,"ECCENTRICITY":0.00017272,"INCLINATION":87.918,"RA_OF_ASC_NODE":295.5146,"ARG_OF_PERICENTER":80.2105,"MEAN_ANOMALY":279.9224,"EPHEMERIS_TYPE":0,"CLASSIFICATION_TYPE":"U","NORAD_CAT_ID":49286,"ELEMENT_SET_NO":999,"REV_AT_EPOCH":21591,"BSTAR":8.7941532e-5,"MEAN_MOTION_DOT":4.9e-7,"MEAN_MOTION_DDOT":0},{"OBJECT_NAME":"ONEWEB-0361","OBJECT_ID":"2021-090J","EPOCH":"2026-03-03T14:52:16.042368","MEAN_MOTION":13.20772654,"ECCENTRICITY":0.00014608,"INCLINATION":87.9183,"RA_OF_ASC_NODE":295.5156,"ARG_OF_PERICENTER":79.431,"MEAN_ANOMALY":280.6988,"EPHEMERIS_TYPE":0,"CLASSIFICATION_TYPE":"U","NORAD_CAT_ID":49287,"ELEMENT_SET_NO":999,"REV_AT_EPOCH":21636,"BSTAR":-4.774423e-6,"MEAN_MOTION_DOT":1.1e-7,"MEAN_MOTION_DDOT":0}]
