ONEWEB-0346             
1 49212U 21083AC  26062.37382678  .00000054  00000+0  10510-3 0  9990
2 49212  87.9241 356.4773 0001734  56.8005 303.3294 13.18688029216037
ONEWEB-0348             
1 49213U 21083AD  26062.66067209  .00000084  00000+0  17448-3 0  9993
2 49213  87.9182 295.5088 0001834  65.6945 294.4380 13.20771941222881
ONEWEB-0350             
1 49214U 21083AE  26062.31002089  .00000189  00000+0  48132-3 0  9991
2 49214  87.9043 341.2764 0002046  73.6523 286.4831 13.13468984217030
ONEWEB-0351             
1 49215U 21083AF  26062.65422784  .00000078  00000+0  15956-3 0  9992
2 49215  87.9183 295.5088 0002238 103.0199 257.1185 13.20772769222845
ONEWEB-0352             
1 49216U 21083AG  26062.29055858  .00000334  00000+0  88075-3 0  9994
2 49216  87.9037 341.2969 0001958  90.0741 270.0612 13.13470519217121
ONEWEB-0354             
1 49217U 21083AH  26062.60384685  .00000090  00000+0  18935-3 0  9990
2 49217  87.9183 295.5180 0001803  75.4866 284.6467 13.20772430222876
ONEWEB-0355             
1 49218U 21083AJ  26062.31945693 -.00000029  00000+0 -11425-3 0  9992
2 49218  87.9030 341.3022 0001982  81.3313 278.8041 13.13467923217006
ONEWEB-0357             
1 49219U 21083AK  26062.60069224  .00000061  00000+0  11745-3 0  9991
2 49219  87.9182 295.5133 0001702  87.4414 272.6914 13.20772296222879
ONEWEB-0332             
1 49279U 21090A   26062.64326133 -.00000131  00000+0 -38784-3 0  9996
2 49279  87.8996 310.7663 0001543  88.0193 272.1113 13.14501691213710
ONEWEB-0347             
1 49280U 21090B   26062.59121672 -.00000217  00000+0 -56663-3 0  9994
2 49280  87.9184 295.5240 0001357  88.7334 271.3955 13.20770708217106
ONEWEB-0349             
1 49281U 21090C   26062.62279477  .00000000  00000+0 -31756-4 0  9992
2 49281  87.9186 295.5174 0001584  83.7524 276.3789 13.20772209215895
ONEWEB-0353             
1 49282U 21090D   26062.63533186 -.00000176  00000+0 -50928-3 0  9990
2 49282  87.9002 310.7619 0001470  87.4819 272.6479 13.14502150213712
ONEWEB-0356             
1 49283U 21090E   26062.62120225  .00000010  00000+0 -63824-5 0  9993
2 49283  87.9180 295.5113 0000916  55.8512 304.2708 13.20772306215899
ONEWEB-0358             
1 49284U 21090F   26062.65120359  .00000096  00000+0  20398-3 0  9995
2 49284  87.9182 295.5083 0001583  79.2450 280.8862 13.20772362216624
ONEWEB-0359             
1 49285U 21090G   26062.64804344  .00000036  00000+0  56859-4 0  9994
2 49285  87.9183 295.5056 0001789  76.3469 283.7864 13.20769816216604
ONEWEB-0360             
1 49286U 21090H   26062.63856245  .00000049  00000+0  87942-4 0  9992
2 49286  87.9180 295.5146 0001727  80.2105 279.9224 13.20773536215919
ONEWEB-0361             
1 49287U 21090J   26062.61963012  .00000011  00000+0 -47744-5 0  9999
2 49287  87.9183 295.5156 0001460  79.4310 280.6988 13.20772654216362
